[
{"bizId":100,"bizType":"Hotels","bizName":"GoodFellasHotel","tenantBizId":101,"bizAddr":{"bizLocationId":1001,"streetName":"BestFriend Rd","bldNumber":"334","city":"Atlanta","state":"GA","zipCode":"30337"},"contactNumber":"(404)762-7734","syntheticKey":"100-101"},
{"bizId":100,"bizType":"Hotels","bizName":"GoodFellasHotel","tenantBizId":102,"bizAddr":{"bizLocationId":1002,"streetName":"43rd Street","bldNumber":"881","city":"New York","state":"NY","zipCode":"10036"},"contactNumber":"(212)201-4732","syntheticKey":"100-102"},
{"bizId":100,"bizType":"Hotels","bizName":"GoodFellasHotel","tenantBizId":103,"bizAddr":{"bizLocationId":1003,"streetName":"Powell Street","bldNumber":"204","city":"San Francisco","state":"CA","zipCode":"94102"},"contactNumber":"(415)397-1125","syntheticKey":"100-103"},
{"bizId":100,"bizType":"Hotels","bizName":"GoodFellasHotel","tenantBizId":104,"bizAddr":{"bizLocationId":1004,"streetName":"Universal Blvd","bldNumber":"9901","city":"Orlando","state":"FL","zipCode":"32819"},"contactNumber":"(407)233-5429","syntheticKey":"100-104"},
{"bizId":100,"bizType":"Hotels","bizName":"GoodFellasHotel","tenantBizId":105,"bizAddr":{"bizLocationId":1005,"streetName":"W Century Blvd","bldNumber":"5300","city":"Los Angeles","state":"CA","zipCode":"90045"},"contactNumber":"(866)762-4218","syntheticKey":"100-105"},
{"bizId":110,"bizType":"Hotels","bizName":"HikingHotels","tenantBizId":101,"bizAddr":{"bizLocationId":1101,"streetName":"South Colorado Blvd","bldNumber":"5711","city":"Denver","state":"CO","zipCode":"80246"},"contactNumber":"(303)410-4001","syntheticKey":"110-101"},
{"bizId":110,"bizType":"Hotels","bizName":"HikingHotels","tenantBizId":102,"bizAddr":{"bizLocationId":1102,"streetName":"149 State Highway","bldNumber":"156","city":"Grand Canyon","state":"CA","zipCode":"86023"},"contactNumber":"(303)265-5701","syntheticKey":"110-102"},
{"bizId":110,"bizType":"Hotels","bizName":"HikingHotels","tenantBizId":103,"bizAddr":{"bizLocationId":1103,"streetName":"E Mall Drive","bldNumber":"814","city":"Rapid City","state":"SD","zipCode":"57701"},"contactNumber":"(605)791-6101","syntheticKey":"110-103"},
{"bizId":120,"bizType":"Hotels","bizName":"CasinoHotels","tenantBizId":101,"bizAddr":{"bizLocationId":1201,"streetName":"W Resort World","bldNumber":"711","city":"Los Vegas","state":"NV","zipCode":"89109"},"contactNumber":"(702)676-4801","syntheticKey":"120-101"},
{"bizId":120,"bizType":"Hotels","bizName":"CasinoHotels","tenantBizId":102,"bizAddr":{"bizLocationId":1202,"streetName":"East Second Street","bldNumber":"5017","city":"Reno","state":"NV","zipCode":"89521"},"contactNumber":"(707)410-4001","syntheticKey":"120-102"},
{"bizId":130,"bizType":"Hotels","bizName":"FamilyFunHotel","tenantBizId":101,"bizAddr":{"bizLocationId":1301,"streetName":"Hotel Plaza Blvd","bldNumber":"671","city":"Lake Buena","state":"FL","zipCode":"32830"},"contactNumber":"(833)435-2001","syntheticKey":"130-101"},
{"bizId":130,"bizType":"Hotels","bizName":"FamilyFunHotel","tenantBizId":102,"bizAddr":{"bizLocationId":1302,"streetName":"W Convention Way","bldNumber":"588","city":"Anaheim","state":"CA","zipCode":"92802"},"contactNumber":"(310)879-4501","syntheticKey":"130-102"},
{"bizId":500,"bizType":"CarRentals","bizName":"ValueRentals","tenantBizId":101,"bizAddr":{"bizLocationId":5001,"streetName":"South Main Street","bldNumber":"5110","city":"Denver","state":"CO","zipCode":"80246"},"contactNumber":"(303)410-3001","syntheticKey":"500-101"},
{"bizId":500,"bizType":"CarRentals","bizName":"ValueRentals","tenantBizId":102,"bizAddr":{"bizLocationId":5002,"streetName":"149 Mountain Blvd","bldNumber":"1536","city":"Grand Canyon","state":"AZ","zipCode":"86023"},"contactNumber":"(303)265-7061","syntheticKey":"500-102"},
{"bizId":500,"bizType":"CarRentals","bizName":"ValueRentals","tenantBizId":103,"bizAddr":{"bizLocationId":5003,"streetName":"E Grand Drive","bldNumber":"8314","city":"Rapid City","state":"SD","zipCode":"57701"},"contactNumber":"(605)791-9501","syntheticKey":"500-103"},
{"bizId":520,"bizType":"CarRentals","bizName":"LuxuryRentals","tenantBizId":101,"bizAddr":{"bizLocationId":5201,"streetName":"Ocean Drive","bldNumber":"201","city":"Miami Beach","state":"FL","zipCode":"33139"},"contactNumber":"(305)938-8301","syntheticKey":"520-101"},
{"bizId":520,"bizType":"CarRentals","bizName":"LuxuryRentals","tenantBizId":102,"bizAddr":{"bizLocationId":5202,"streetName":"Atlantic Avenue","bldNumber":"1002","city":"Daytona Beach","state":"FL","zipCode":"32118"},"contactNumber":"(368)254-8071","syntheticKey":"520-102"},
{"bizId":510,"bizType":"CarRentals","bizName":"SpendLessRentals","tenantBizId":101,"bizAddr":{"bizLocationId":5101,"streetName":"47th Street","bldNumber":"2881","city":"New York","state":"NY","zipCode":"10036"},"contactNumber":"(303)810-5301","syntheticKey":"510-101"},
{"bizId":510,"bizType":"CarRentals","bizName":"SpendLessRentals","tenantBizId":102,"bizAddr":{"bizLocationId":5102,"streetName":"Powell Street","bldNumber":"204","city":"San Francisco","state":"CA","zipCode":"94102"},"contactNumber":"(415)397-7061","syntheticKey":"510-102"},
{"bizId":510,"bizType":"CarRentals","bizName":"SpendLessRentals","tenantBizId":103,"bizAddr":{"bizLocationId":5103,"streetName":"Universal Blvd","bldNumber":"6901","city":"Orlando","state":"FL","zipCode":"32819"},"contactNumber":"(407)256-5929","syntheticKey":"510-103"}
]
